[
  {
    "COMMENT": "GENERATED VIA SPACETRACK.ORG API",
    "ORIGINATOR": "18 SPCS",
    "NORAD_CAT_ID": "46469",
    "OBJECT_NAME": "HAIYANG 2C",
    "OBJECT_TYPE": "PAYLOAD",
    "CLASSIFICATION_TYPE": "U",
    "INTLDES": "20066A",
    "EPOCH": "2023-06-15 19:17:00",
    "EPOCH_MICROSECONDS": "202848",
    "MEAN_MOTION": "13.83377215",
    "ECCENTRICITY": "0.0009609",
    "INCLINATION": "65.9974",
    "RA_OF_ASC_NODE": "67.5277",
    "ARG_OF_PERICENTER": "300.6365",
    "MEAN_ANOMALY": "59.3755",
    "EPHEMERIS_TYPE": "0",
    "ELEMENT_SET_NO": "999",
    "REV_AT_EPOCH": "13799",
    "BSTAR": "0.000063224",
    "MEAN_MOTION_DOT": "-0.00000012",
    "MEAN_MOTION_DDOT": "0",
    "FILE": "3933899",
    "TLE_LINE0": "0 HAIYANG 2C",
    "TLE_LINE1": "1 46469U 20066A   23166.80347457 -.00000012  00000-0  63224-4 0  9994",
    "TLE_LINE2": "2 46469  65.9974  67.5277 0009609 300.6365  59.3755 13.83377215137995",
    "OBJECT_ID": "2020-066A",
    "OBJECT_NUMBER": "46469",
    "SEMIMAJOR_AXIS": "7330.070",
    "PERIOD": "104.093",
    "APOGEE": "958.978",
    "PERIGEE": "944.891",
    "DECAYED": "0"
  },
  {
    "COMMENT": "GENERATED VIA SPACETRACK.ORG API",
    "ORIGINATOR": "18 SPCS",
    "NORAD_CAT_ID": "46469",
    "OBJECT_NAME": "HAIYANG 2C",
    "OBJECT_TYPE": "PAYLOAD",
    "CLASSIFICATION_TYPE": "U",
    "INTLDES": "20066A",
    "EPOCH": "2023-06-15 19:17:00",
    "EPOCH_MICROSECONDS": "202848",
    "MEAN_MOTION": "13.83377215",
    "ECCENTRICITY": "0.0009609",
    "INCLINATION": "65.9974",
    "RA_OF_ASC_NODE": "67.5277",
    "ARG_OF_PERICENTER": "300.6365",
    "MEAN_ANOMALY": "59.3755",
    "EPHEMERIS_TYPE": "0",
    "ELEMENT_SET_NO": "999",
    "REV_AT_EPOCH": "13770",
    "BSTAR": "0.000063224",
    "MEAN_MOTION_DOT": "-0.00000012",
    "MEAN_MOTION_DDOT": "0",
    "FILE": "3934071",
    "TLE_LINE0": "0 HAIYANG 2C",
    "TLE_LINE1": "1 46469U 20066A   23166.80347457 -.00000012  00000-0  63224-4 0  9994",
    "TLE_LINE2": "2 46469  65.9974  67.5277 0009609 300.6365  59.3755 13.83377215137704",
    "OBJECT_ID": "2020-066A",
    "OBJECT_NUMBER": "46469",
    "SEMIMAJOR_AXIS": "7330.070",
    "PERIOD": "104.093",
    "APOGEE": "958.978",
    "PERIGEE": "944.891",
    "DECAYED": "0"
  },
  {
    "COMMENT": "GENERATED VIA SPACETRACK.ORG API",
    "ORIGINATOR": "18 SPCS",
    "NORAD_CAT_ID": "46469",
    "OBJECT_NAME": "HAIYANG 2C",
    "OBJECT_TYPE": "PAYLOAD",
    "CLASSIFICATION_TYPE": "U",
    "INTLDES": "20066A",
    "EPOCH": "2023-06-16 02:13:25",
    "EPOCH_MICROSECONDS": "214016",
    "MEAN_MOTION": "13.83377279",
    "ECCENTRICITY": "0.0009622",
    "INCLINATION": "65.9974",
    "RA_OF_ASC_NODE": "66.8077",
    "ARG_OF_PERICENTER": "300.6379",
    "MEAN_ANOMALY": "59.374",
    "EPHEMERIS_TYPE": "0",
    "ELEMENT_SET_NO": "999",
    "REV_AT_EPOCH": "13803",
    "BSTAR": "0.000072169",
    "MEAN_MOTION_DOT": "-0.00000002",
    "MEAN_MOTION_DDOT": "0",
    "FILE": "3934171",
    "TLE_LINE0": "0 HAIYANG 2C",
    "TLE_LINE1": "1 46469U 20066A   23167.09265294 -.00000002  00000-0  72169-4 0  9991",
    "TLE_LINE2": "2 46469  65.9974  66.8077 0009622 300.6379  59.3740 13.83377279138035",
    "OBJECT_ID": "2020-066A",
    "OBJECT_NUMBER": "46469",
    "SEMIMAJOR_AXIS": "7330.069",
    "PERIOD": "104.093",
    "APOGEE": "958.987",
    "PERIGEE": "944.881",
    "DECAYED": "0"
  },
  {
    "COMMENT": "GENERATED VIA SPACETRACK.ORG API",
    "ORIGINATOR": "18 SPCS",
    "NORAD_CAT_ID": "46469",
    "OBJECT_NAME": "HAIYANG 2C",
    "OBJECT_TYPE": "PAYLOAD",
    "CLASSIFICATION_TYPE": "U",
    "INTLDES": "20066A",
    "EPOCH": "2023-06-16 10:53:56",
    "EPOCH_MICROSECONDS": "474304",
    "MEAN_MOTION": "13.83377344",
    "ECCENTRICITY": "0.0009634",
    "INCLINATION": "65.9974",
    "RA_OF_ASC_NODE": "65.9077",
    "ARG_OF_PERICENTER": "300.6101",
    "MEAN_ANOMALY": "59.4017",
    "EPHEMERIS_TYPE": "0",
    "ELEMENT_SET_NO": "999",
    "REV_AT_EPOCH": "13808",
    "BSTAR": "0.000071147",
    "MEAN_MOTION_DOT": "-0.00000003",
    "MEAN_MOTION_DDOT": "0",
    "FILE": "3934449",
    "TLE_LINE0": "0 HAIYANG 2C",
    "TLE_LINE1": "1 46469U 20066A   23167.45412586 -.00000003  00000-0  71147-4 0  9995",
    "TLE_LINE2": "2 46469  65.9974  65.9077 0009634 300.6101  59.4017 13.83377344138087",
    "OBJECT_ID": "2020-066A",
    "OBJECT_NUMBER": "46469",
    "SEMIMAJOR_AXIS": "7330.069",
    "PERIOD": "104.093",
    "APOGEE": "958.996",
    "PERIGEE": "944.872",
    "DECAYED": "0"
  },
  {
    "COMMENT": "GENERATED VIA SPACETRACK.ORG API",
    "ORIGINATOR": "18 SPCS",
    "NORAD_CAT_ID": "46469",
    "OBJECT_NAME": "HAIYANG 2C",
    "OBJECT_TYPE": "PAYLOAD",
    "CLASSIFICATION_TYPE": "U",
    "INTLDES": "20066A",
    "EPOCH": "2023-06-16 12:38:02",
    "EPOCH_MICROSECONDS": "725152",
    "MEAN_MOTION": "13.83377375",
    "ECCENTRICITY": "0.0009638",
    "INCLINATION": "65.9974",
    "RA_OF_ASC_NODE": "65.7278",
    "ARG_OF_PERICENTER": "300.5903",
    "MEAN_ANOMALY": "59.4214",
    "EPHEMERIS_TYPE": "0",
    "ELEMENT_SET_NO": "999",
    "REV_AT_EPOCH": "13780",
    "BSTAR": "0.000074041",
    "MEAN_MOTION_DOT": "0",
    "MEAN_MOTION_DDOT": "0",
    "FILE": "3934686",
    "TLE_LINE0": "0 HAIYANG 2C",
    "TLE_LINE1": "1 46469U 20066A   23167.52642043  .00000000  00000-0  74041-4 0  9998",
    "TLE_LINE2": "2 46469  65.9974  65.7278 0009638 300.5903  59.4214 13.83377375137803",
    "OBJECT_ID": "2020-066A",
    "OBJECT_NUMBER": "46469",
    "SEMIMAJOR_AXIS": "7330.069",
    "PERIOD": "104.093",
    "APOGEE": "958.999",
    "PERIGEE": "944.869",
    "DECAYED": "0"
  },
  {
    "COMMENT": "GENERATED VIA SPACETRACK.ORG API",
    "ORIGINATOR": "18 SPCS",
    "NORAD_CAT_ID": "46469",
    "OBJECT_NAME": "HAIYANG 2C",
    "OBJECT_TYPE": "PAYLOAD",
    "CLASSIFICATION_TYPE": "U",
    "INTLDES": "20066A",
    "EPOCH": "2023-06-16 16:06:15",
    "EPOCH_MICROSECONDS": "228576",
    "MEAN_MOTION": "13.83377396",
    "ECCENTRICITY": "0.0009643",
    "INCLINATION": "65.9974",
    "RA_OF_ASC_NODE": "65.3677",
    "ARG_OF_PERICENTER": "300.5695",
    "MEAN_ANOMALY": "59.4422",
    "EPHEMERIS_TYPE": "0",
    "ELEMENT_SET_NO": "999",
    "REV_AT_EPOCH": "13811",
    "BSTAR": "0.000070827",
    "MEAN_MOTION_DOT": "-0.00000003",
    "MEAN_MOTION_DDOT": "0",
    "FILE": "3934748",
    "TLE_LINE0": "0 HAIYANG 2C",
    "TLE_LINE1": "1 46469U 20066A   23167.67100959 -.00000003  00000-0  70827-4 0  9991",
    "TLE_LINE2": "2 46469  65.9974  65.3677 0009643 300.5695  59.4422 13.83377396138115",
    "OBJECT_ID": "2020-066A",
    "OBJECT_NUMBER": "46469",
    "SEMIMAJOR_AXIS": "7330.069",
    "PERIOD": "104.093",
    "APOGEE": "959.002",
    "PERIGEE": "944.866",
    "DECAYED": "0"
  },
  {
    "COMMENT": "GENERATED VIA SPACETRACK.ORG API",
    "ORIGINATOR": "18 SPCS",
    "NORAD_CAT_ID": "46469",
    "OBJECT_NAME": "HAIYANG 2C",
    "OBJECT_TYPE": "PAYLOAD",
    "CLASSIFICATION_TYPE": "U",
    "INTLDES": "20066A",
    "EPOCH": "2023-06-16 19:34:27",
    "EPOCH_MICROSECONDS": "732864",
    "MEAN_MOTION": "13.83377364",
    "ECCENTRICITY": "0.0009646",
    "INCLINATION": "65.9974",
    "RA_OF_ASC_NODE": "65.0077",
    "ARG_OF_PERICENTER": "300.5538",
    "MEAN_ANOMALY": "59.4578",
    "EPHEMERIS_TYPE": "0",
    "ELEMENT_SET_NO": "999",
    "REV_AT_EPOCH": "13784",
    "BSTAR": "0.000059727",
    "MEAN_MOTION_DOT": "-0.00000015",
    "MEAN_MOTION_DDOT": "0",
    "FILE": "3934949",
    "TLE_LINE0": "0 HAIYANG 2C",
    "TLE_LINE1": "1 46469U 20066A   23167.81559876 -.00000015  00000-0  59727-4 0  9992",
    "TLE_LINE2": "2 46469  65.9974  65.0077 0009646 300.5538  59.4578 13.83377364137841",
    "OBJECT_ID": "2020-066A",
    "OBJECT_NUMBER": "46469",
    "SEMIMAJOR_AXIS": "7330.069",
    "PERIOD": "104.093",
    "APOGEE": "959.005",
    "PERIGEE": "944.863",
    "DECAYED": "0"
  },
  {
    "COMMENT": "GENERATED VIA SPACETRACK.ORG API",
    "ORIGINATOR": "18 SPCS",
    "NORAD_CAT_ID": "46469",
    "OBJECT_NAME": "HAIYANG 2C",
    "OBJECT_TYPE": "PAYLOAD",
    "CLASSIFICATION_TYPE": "U",
    "INTLDES": "20066A",
    "EPOCH": "2023-06-17 00:46:46",
    "EPOCH_MICROSECONDS": "489728",
    "MEAN_MOTION": "13.83377389",
    "ECCENTRICITY": "0.0009655",
    "INCLINATION": "65.9974",
    "RA_OF_ASC_NODE": "64.4678",
    "ARG_OF_PERICENTER": "300.5198",
    "MEAN_ANOMALY": "59.4916",
    "EPHEMERIS_TYPE": "0",
    "ELEMENT_SET_NO": "999",
    "REV_AT_EPOCH": "13816",
    "BSTAR": "0.000062924",
    "MEAN_MOTION_DOT": "-0.00000012",
    "MEAN_MOTION_DDOT": "0",
    "FILE": "3935059",
    "TLE_LINE0": "0 HAIYANG 2C",
    "TLE_LINE1": "1 46469U 20066A   23168.03248252 -.00000012  00000-0  62924-4 0  9990",
    "TLE_LINE2": "2 46469  65.9974  64.4678 0009655 300.5198  59.4916 13.83377389138162",
    "OBJECT_ID": "2020-066A",
    "OBJECT_NUMBER": "46469",
    "SEMIMAJOR_AXIS": "7330.069",
    "PERIOD": "104.093",
    "APOGEE": "959.011",
    "PERIGEE": "944.857",
    "DECAYED": "0"
  }
]